[
    {
        "Altitude(m)": 607897.6147789173,
        "Argument of Periapsis(deg)": 0.0,
        "Eccentricity": 0.0,
        "Inclination(deg)": 60.0,
        "Latitude(deg)": -14.292935330527962,
        "Longitude(deg)": 156.61873439390845,
        "Mean Anomaly(deg)": -16.363599999999984,
        "RAAN(deg)": 265.0,
        "Satellite Name": "Test1 1187",
        "Satellite Number": 1187,
        "Semi-Major Axis(m)": 6980739.136638005,
        "Time(s)": 0
    },
    {
        "Altitude(m)": 607750.8161303306,
        "Argument of Periapsis(deg)": 0.00010418945913296404,
        "Eccentricity": 0.0,
        "Inclination(deg)": 60.0,
        "Latitude(deg)": -13.75877714295421,
        "Longitude(deg)": 156.90580412724304,
        "Mean Anomaly(deg)": -15.743493854538132,
        "RAAN(deg)": 264.99957995086027,
        "Satellite Name": "Test1 1187",
        "Satellite Number": 1187,
        "Semi-Major Axis(m)": 6980739.136638005,
        "Time(s)": 10
    }
]